{
    "links": {
        "self": "http://www.neowsapp.com/rest/v1/neo/3802570?api_key=iIulBulltgU6a56xZRHN4H3l9WmuAYTsLGpBGhQ2"
    },
    "id": "3802570",
    "neo_reference_id": "3802570",
    "name": "(2018 GU3)",
    "designation": "2018 GU3",
    "nasa_jpl_url": "http://ssd.jpl.nasa.gov/sbdb.cgi?sstr=3802570",
    "absolute_magnitude_h": 23.8,
    "estimated_diameter": {
        "kilometers": {
            "estimated_diameter_min": 0.046190746,
            "estimated_diameter_max": 0.1032856481
        },
        "meters": {
            "estimated_diameter_min": 46.1907460282,
            "estimated_diameter_max": 103.2856480504
        },
        "miles": {
            "estimated_diameter_min": 0.0287015901,
            "estimated_diameter_max": 0.0641787064
        },
        "feet": {
            "estimated_diameter_min": 151.544447199,
            "estimated_diameter_max": 338.8636855496
        }
    },
    "is_potentially_hazardous_asteroid": false,
    "close_approach_data": [
        {
            "close_approach_date": "2018-04-19",
            "close_approach_date_full": "2018-Apr-19 14:34",
            "epoch_date_close_approach": 1524148440000,
            "relative_velocity": {
                "kilometers_per_second": "20.8699019473",
                "kilometers_per_hour": "75131.6470103578",
                "miles_per_hour": "46683.8836659637"
            },
            "miss_distance": {
                "astronomical": "0.0580516169",
                "lunar": "22.5820789741",
                "kilometers": "8684398.238296003",
                "miles": "5396234.8385427214"
            },
            "orbiting_body": "Earth"
        }
    ],
    "orbital_data": {
        "orbit_id": "1",
        "orbit_determination_date": "2018-04-15 08:12:07",
        "first_observation_date": "2018-04-12",
        "last_observation_date": "2018-04-14",
        "data_arc_in_days": 2,
        "observations_used": 11,
        "orbit_uncertainty": "9",
        "minimum_orbit_intersection": ".049088",
        "jupiter_tisserand_invariant": "6.320",
        "epoch_osculation": "2458221.5",
        "eccentricity": ".4469096365550796",
        "semi_major_axis": ".9140118414663692",
        "inclination": "33.26348851778522",
        "ascending_node_longitude": "26.92050651635138",
        "orbital_period": "319.1730107145208",
        "perihelion_distance": ".5055311415895951",
        "perihelion_argument": "315.0740416597313",
        "aphelion_distance": "1.322492541343143",
        "perihelion_time": "2458300.857194727897",
        "mean_anomaly": "270.4918362674605",
        "mean_motion": "1.127914917348686",
        "equinox": "J2000",
        "orbit_class": {
            "orbit_class_type": "ATE",
            "orbit_class_description": "Near-Earth asteroid orbits similar to that of 2062 Aten",
            "orbit_class_range": "a (semi-major axis) < 1.0 AU; q (perihelion) > 0.983 AU"
        }
    },
    "is_sentry_object": false
}